start=new Date('2022-02-28T00:00:00.000Z').valueOf();
sats=[{"CLASSIFICATION_TYPE":"U","COUNTRY_CODE":"US","TIME_SYSTEM":"UTC","EPHEMERIS_TYPE":"0","SITE":"AFETR","MEAN_MOTION":"15.06398951","OBJECT_NAME":"STARLINK-1452","RCS_SIZE":"LARGE","ELEMENT_SET_NO":"999","REV_AT_EPOCH":"9702","SEMIMAJOR_AXIS":"6925.352","GP_ID":"197284760","TLE_LINE1":"1 45669U 20035N   22058.73871780  .00001921  00000-0  14783-3 0  9997","ECCENTRICITY":"0.00013630","CENTER_NAME":"EARTH","MEAN_ANOMALY":"300.0279","PERIOD":"95.592","MEAN_MOTION_DDOT":"0.0000000000000","APOAPSIS":"548.161","OBJECT_ID":"2020-035N","EPOCH":"2022-02-27T17:43:45.217920","BSTAR":"0.00014783000000","FILE":"3331200","INCLINATION":"53.0541","DECAY_DATE":null,"MEAN_MOTION_DOT":"0.00001921","LAUNCH_DATE":"2020-06-04","ARG_OF_PERICENTER":"60.0846","PERIAPSIS":"546.273","OBJECT_TYPE":"PAYLOAD","RA_OF_ASC_NODE":"189.9709","REF_FRAME":"TEME","TLE_LINE2":"2 45669  53.0541 189.9709 0001363  60.0846 300.0279 15.06398951 97026","NORAD_CAT_ID":"45669","MEAN_ELEMENT_THEORY":"SGP4"},{"MEAN_MOTION_DDOT":"0.0000000000000","APOAPSIS":"548.198","EPOCH":"2022-02-27T15:56:16.878336","OBJECT_ID":"2020-035P","BSTAR":"-0.00004956000000","FILE":"3331200","DECAY_DATE":null,"INCLINATION":"53.0556","LAUNCH_DATE":"2020-06-04","ARG_OF_PERICENTER":"65.5360","MEAN_MOTION_DOT":"-0.00001020","PERIAPSIS":"546.228","OBJECT_TYPE":"PAYLOAD","REF_FRAME":"TEME","RA_OF_ASC_NODE":"160.3101","TLE_LINE2":"2 45670  53.0556 160.3101 0001422  65.5360 294.5777 15.06400093 97324","NORAD_CAT_ID":"45670","MEAN_ELEMENT_THEORY":"SGP4","CLASSIFICATION_TYPE":"U","COUNTRY_CODE":"US","TIME_SYSTEM":"UTC","EPHEMERIS_TYPE":"0","SITE":"AFETR","RCS_SIZE":"LARGE","MEAN_MOTION":"15.06400093","OBJECT_NAME":"STARLINK-1453","ELEMENT_SET_NO":"999","SEMIMAJOR_AXIS":"6925.348","GP_ID":"197283008","REV_AT_EPOCH":"9732","ECCENTRICITY":"0.00014220","CENTER_NAME":"EARTH","TLE_LINE1":"1 45670U 20035P   22058.66408424 -.00001020  00000-0 -49560-4 0  9996","MEAN_ANOMALY":"294.5777","PERIOD":"95.592"},{"MEAN_ANOMALY":"293.8332","ECCENTRICITY":"0.00015030","CENTER_NAME":"EARTH","TLE_LINE1":"1 45671U 20035Q   22058.74240683  .00000522  00000-0  53931-4 0  9998","PERIOD":"95.593","ELEMENT_SET_NO":"999","SEMIMAJOR_AXIS":"6925.379","GP_ID":"197283258","REV_AT_EPOCH":"9701","EPHEMERIS_TYPE":"0","RCS_SIZE":"LARGE","MEAN_MOTION":"15.06390185","OBJECT_NAME":"STARLINK-1454","SITE":"AFETR","COUNTRY_CODE":"US","CLASSIFICATION_TYPE":"U","TIME_SYSTEM":"UTC","TLE_LINE2":"2 45671  53.0542 189.9536 0001503  66.2814 293.8332 15.06390185 97016","RA_OF_ASC_NODE":"189.9536","REF_FRAME":"TEME","MEAN_ELEMENT_THEORY":"SGP4","NORAD_CAT_ID":"45671","OBJECT_TYPE":"PAYLOAD","PERIAPSIS":"546.203","DECAY_DATE":null,"INCLINATION":"53.0542","FILE":"3331200","ARG_OF_PERICENTER":"66.2814","LAUNCH_DATE":"2020-06-04","MEAN_MOTION_DOT":"0.00000522","APOAPSIS":"548.285","MEAN_MOTION_DDOT":"0.0000000000000","BSTAR":"0.00005393100000","OBJECT_ID":"2020-035Q","EPOCH":"2022-02-27T17:49:03.950112"},{"EPHEMERIS_TYPE":"0","SITE":"AFETR","RCS_SIZE":"LARGE","MEAN_MOTION":"15.06399684","OBJECT_NAME":"STARLINK-1455","CLASSIFICATION_TYPE":"U","COUNTRY_CODE":"US","TIME_SYSTEM":"UTC","CENTER_NAME":"EARTH","ECCENTRICITY":"0.00015230","TLE_LINE1":"1 45672U 20035R   22058.68619409  .00000884  00000-0  78247-4 0  9996","MEAN_ANOMALY":"286.9504","PERIOD":"95.592","ELEMENT_SET_NO":"999","GP_ID":"197284510","SEMIMAJOR_AXIS":"6925.350","REV_AT_EPOCH":"9743","FILE":"3331200","DECAY_DATE":null,"INCLINATION":"53.0535","LAUNCH_DATE":"2020-06-04","ARG_OF_PERICENTER":"73.1652","MEAN_MOTION_DOT":"0.00000884","MEAN_MOTION_DDOT":"0.0000000000000","APOAPSIS":"548.269","OBJECT_ID":"2020-035R","EPOCH":"2022-02-27T16:28:07.169376","BSTAR":"0.00007824700000","REF_FRAME":"TEME","RA_OF_ASC_NODE":"160.2173","TLE_LINE2":"2 45672  53.0535 160.2173 0001523  73.1652 286.9504 15.06399684 97430","NORAD_CAT_ID":"45672","MEAN_ELEMENT_THEORY":"SGP4","PERIAPSIS":"546.160","OBJECT_TYPE":"PAYLOAD"},{"SITE":"AFETR","RCS_SIZE":"LARGE","MEAN_MOTION":"15.06413012","OBJECT_NAME":"STARLINK-1456","EPHEMERIS_TYPE":"0","TIME_SYSTEM":"UTC","CLASSIFICATION_TYPE":"U","COUNTRY_CODE":"US","PERIOD":"95.591","CENTER_NAME":"EARTH","ECCENTRICITY":"0.00014510","TLE_LINE1":"1 45673U 20035S   22058.75714524 -.00004886  00000-0 -30921-3 0  9993","MEAN_ANOMALY":"292.3597","GP_ID":"197284260","SEMIMAJOR_AXIS":"6925.309","REV_AT_EPOCH":"9703","ELEMENT_SET_NO":"999","ARG_OF_PERICENTER":"67.7546","LAUNCH_DATE":"2020-06-04","MEAN_MOTION_DOT":"-0.00004886","FILE":"3331200","DECAY_DATE":null,"INCLINATION":"53.0534","OBJECT_ID":"2020-035S","EPOCH":"2022-02-27T18:10:17.348736","BSTAR":"-0.00030921000000","MEAN_MOTION_DDOT":"0.0000000000000","APOAPSIS":"548.179","NORAD_CAT_ID":"45673","MEAN_ELEMENT_THEORY":"SGP4","REF_FRAME":"TEME","RA_OF_ASC_NODE":"189.8856","TLE_LINE2":"2 45673  53.0534 189.8856 0001451  67.7546 292.3597 15.06413012 97037","PERIAPSIS":"546.169","OBJECT_TYPE":"PAYLOAD"},{"OBJECT_TYPE":"PAYLOAD","PERIAPSIS":"546.169","MEAN_ELEMENT_THEORY":"SGP4","NORAD_CAT_ID":"45674","TLE_LINE2":"2 45674  53.0545 189.8576 0001500  75.7841 284.3315 15.06401856 97000","REF_FRAME":"TEME","RA_OF_ASC_NODE":"189.8576","BSTAR":"0.00008981500000","OBJECT_ID":"2020-035T","EPOCH":"2022-02-27T18:20:54.528000","APOAPSIS":"548.247","MEAN_MOTION_DDOT":"0.0000000000000","MEAN_MOTION_DOT":"0.00001057","ARG_OF_PERICENTER":"75.7841","LAUNCH_DATE":"2020-06-04","INCLINATION":"53.0545","DECAY_DATE":null,"FILE":"3331200","REV_AT_EPOCH":"9700","SEMIMAJOR_AXIS":"6925.343","GP_ID":"197283509","ELEMENT_SET_NO":"999","PERIOD":"95.592","MEAN_ANOMALY":"284.3315","TLE_LINE1":"1 45674U 20035T   22058.76452000  .00001057  00000-0  89815-4 0  9995","ECCENTRICITY":"0.00015000","CENTER_NAME":"EARTH","TIME_SYSTEM":"UTC","COUNTRY_CODE":"US","CLASSIFICATION_TYPE":"U","MEAN_MOTION":"15.06401856","OBJECT_NAME":"STARLINK-1457","RCS_SIZE":"LARGE","SITE":"AFETR","EPHEMERIS_TYPE":"0"},{"ELEMENT_SET_NO":"999","REV_AT_EPOCH":"9699","GP_ID":"197283759","SEMIMAJOR_AXIS":"6925.335","MEAN_ANOMALY":"305.8762","TLE_LINE1":"1 45675U 20035U   22058.75346399  .00002384  00000-0  17890-3 0  9995","ECCENTRICITY":"0.00018470","CENTER_NAME":"EARTH","PERIOD":"95.592","COUNTRY_CODE":"US","CLASSIFICATION_TYPE":"U","TIME_SYSTEM":"UTC","EPHEMERIS_TYPE":"0","OBJECT_NAME":"STARLINK-1458","MEAN_MOTION":"15.06404358","RCS_SIZE":"LARGE","SITE":"AFETR","OBJECT_TYPE":"PAYLOAD","PERIAPSIS":"545.921","TLE_LINE2":"2 45675  53.0536 189.8996 0001847  54.2398 305.8762 15.06404358 96992","REF_FRAME":"TEME","RA_OF_ASC_NODE":"189.8996","MEAN_ELEMENT_THEORY":"SGP4","NORAD_CAT_ID":"45675","APOAPSIS":"548.479","MEAN_MOTION_DDOT":"0.0000000000000","BSTAR":"0.00017890000000","EPOCH":"2022-02-27T18:04:59.288736","OBJECT_ID":"2020-035U","INCLINATION":"53.0536","DECAY_DATE":null,"FILE":"3331200","MEAN_MOTION_DOT":"0.00002384","ARG_OF_PERICENTER":"54.2398","LAUNCH_DATE":"2020-06-04"},{"CLASSIFICATION_TYPE":"U","COUNTRY_CODE":"US","TIME_SYSTEM":"UTC","EPHEMERIS_TYPE":"0","SITE":"AFETR","OBJECT_NAME":"STARLINK-1460","MEAN_MOTION":"15.06397643","RCS_SIZE":"LARGE","ELEMENT_SET_NO":"999","REV_AT_EPOCH":"9699","SEMIMAJOR_AXIS":"6925.356","GP_ID":"197284010","TLE_LINE1":"1 45676U 20035V   22058.79032281  .00000720  00000-0  67235-4 0  9993","CENTER_NAME":"EARTH","ECCENTRICITY":"0.00016800","MEAN_ANOMALY":"301.7965","PERIOD":"95.592","MEAN_MOTION_DDOT":"0.0000000000000","APOAPSIS":"548.384","OBJECT_ID":"2020-035V","EPOCH":"2022-02-27T18:58:03.890784","BSTAR":"0.00006723500000","FILE":"3331200","INCLINATION":"53.0555","DECAY_DATE":null,"MEAN_MOTION_DOT":"0.00000720","ARG_OF_PERICENTER":"58.3188","LAUNCH_DATE":"2020-06-04","PERIAPSIS":"546.057","OBJECT_TYPE":"PAYLOAD","RA_OF_ASC_NODE":"189.7410","REF_FRAME":"TEME","TLE_LINE2":"2 45676  53.0555 189.7410 0001680  58.3188 301.7965 15.06397643 96999","NORAD_CAT_ID":"45676","MEAN_ELEMENT_THEORY":"SGP4"},{"SITE":"AFETR","RCS_SIZE":"LARGE","MEAN_MOTION":"15.06403313","OBJECT_NAME":"STARLINK-1392","EPHEMERIS_TYPE":"0","TIME_SYSTEM":"UTC","CLASSIFICATION_TYPE":"U","COUNTRY_CODE":"US","PERIOD":"95.592","CENTER_NAME":"EARTH","ECCENTRICITY":"0.00016580","TLE_LINE1":"1 45677U 20035W   22058.86772554  .00001174  00000-0  97700-4 0  9990","MEAN_ANOMALY":"302.2664","GP_ID":"197284761","SEMIMAJOR_AXIS":"6925.338","REV_AT_EPOCH":"9704","ELEMENT_SET_NO":"999","LAUNCH_DATE":"2020-06-04","ARG_OF_PERICENTER":"57.8486","MEAN_MOTION_DOT":"0.00001174","FILE":"3331200","DECAY_DATE":null,"INCLINATION":"53.0529","EPOCH":"2022-02-27T20:49:31.486656","OBJECT_ID":"2020-035W","BSTAR":"0.00009770000000","MEAN_MOTION_DDOT":"0.0000000000000","APOAPSIS":"548.352","NORAD_CAT_ID":"45677","MEAN_ELEMENT_THEORY":"SGP4","REF_FRAME":"TEME","RA_OF_ASC_NODE":"189.4013","TLE_LINE2":"2 45677  53.0529 189.4013 0001658  57.8486 302.2664 15.06403313 97048","PERIAPSIS":"546.055","OBJECT_TYPE":"PAYLOAD"},{"EPHEMERIS_TYPE":"0","RCS_SIZE":"LARGE","OBJECT_NAME":"STARLINK-1393","MEAN_MOTION":"15.06401560","SITE":"AFETR","COUNTRY_CODE":"US","CLASSIFICATION_TYPE":"U","TIME_SYSTEM":"UTC","MEAN_ANOMALY":"299.0396","ECCENTRICITY":"0.00014300","CENTER_NAME":"EARTH","TLE_LINE1":"1 45678U 20035X   22058.72858147  .00000208  00000-0  32828-4 0  9996","PERIOD":"95.592","ELEMENT_SET_NO":"999","SEMIMAJOR_AXIS":"6925.344","GP_ID":"197283009","REV_AT_EPOCH":"9714","DECAY_DATE":null,"INCLINATION":"53.0535","FILE":"3331200","LAUNCH_DATE":"2020-06-04","ARG_OF_PERICENTER":"61.0737","MEAN_MOTION_DOT":"0.00000208","APOAPSIS":"548.199","MEAN_MOTION_DDOT":"0.0000000000000","BSTAR":"0.00003282800000","EPOCH":"2022-02-27T17:29:09.439008","OBJECT_ID":"2020-035X","TLE_LINE2":"2 45678  53.0535 180.0103 0001430  61.0737 299.0396 15.06401560 97145","REF_FRAME":"TEME","RA_OF_ASC_NODE":"180.0103","MEAN_ELEMENT_THEORY":"SGP4","NORAD_CAT_ID":"45678","OBJECT_TYPE":"PAYLOAD","PERIAPSIS":"546.218"}];
